GOES 9                  
<<<<<<< .mine
1 23581U 95025A   09140.48740122 -.00000086  00000-0  10000-3 0   789
2 23581   5.2419  70.9523 0005891 301.6975  58.0700  0.98801781 51156
=======
1 23581U 95025A   09121.25778288 -.00000177  00000-0  10000-3 0   496
2 23581   5.1915  71.1921 0004910 279.5614  80.3019  0.98800692 50964
>>>>>>> .r148
SARSAT 7 (NOAA 15)      
<<<<<<< .mine
1 25338U 98030A   09144.80785298 -.00000035  00000-0  36111-5 0  9374
2 25338  98.5823 134.5295 0011544 122.8353 237.3929 14.24760806573442
=======
1 25338U 98030A   09122.47557681  .00000021  00000-0  27495-4 0  9105
2 25338  98.5831 112.6921 0010563 185.4411 174.6639 14.24756355570266
>>>>>>> .r148
GOES 11                 
<<<<<<< .mine
1 26352U 00022A   09144.13532407  .00000100  00000-0  10000-3 0  3297
2 26352   0.3818  84.6107 0001159 294.4574 136.4299  1.00267880 33166
=======
1 26352U 00022A   09122.28164757  .00000073  00000-0  10000-3 0  2971
2 26352   0.3272  84.8515 0001718 308.7286 153.3886  1.00284488 32943
>>>>>>> .r148
COSPAS 9 (NADEZHDA 6)   
<<<<<<< .mine
1 26384U 00033A   09145.10936699 -.00000011  00000-0  76542-5 0  6147
2 26384  98.3941 175.2825 0015108 289.4762  70.4818 14.64110729475573
=======
1 26384U 00033A   09122.14669180  .00000124  00000-0  33146-4 0  5958
2 26384  98.3960 151.8714 0015931   3.4542 356.6856 14.64107683472219
>>>>>>> .r148
SARSAT 8 (NOAA 16)      
<<<<<<< .mine
1 26536U 00055A   09144.77531338  .00000337  00000-0  20734-3 0  4141
2 26536  99.1754 147.8756 0010414 352.7773   7.3224 14.12520223446993
=======
1 26536U 00055A   09122.46242113 -.00000069  00000-0 -12312-4 0  3869
2 26536  99.1767 125.0253 0011230  53.3587 306.8605 14.12516785443840
>>>>>>> .r148
GOES 12                 
<<<<<<< .mine
1 26871U 01031A   09140.37995750 -.00000230  00000-0  10000-3 0   696
2 26871   0.0513 252.8241 0004912 189.4326 216.9679  1.00258557 28720
=======
1 26871U 01031A   09122.10202047 -.00000261  00000-0  10000-3 0   398
2 26871   0.0958 256.4750 0003973 174.1583 111.2263  1.00263272 28546
>>>>>>> .r148
SARSAT 9 (NOAA 17)      
<<<<<<< .mine
1 27453U 02032A   09144.81429424  .00000033  00000-0  32608-4 0  4242
2 27453  98.4856 204.6874 0011729 187.2579 172.8408 14.24064899359423
=======
1 27453U 02032A   09122.40081133  .00000222  00000-0  11493-3 0  3959
2 27453  98.4862 183.0397 0010739 255.0912 104.9083 14.24060497356236
>>>>>>> .r148
MSG-1                   
<<<<<<< .mine
1 27509U 02040B   09143.01898582  .00000076  00000-0  10000-3 0  2795
2 27509   0.5719  29.4182 0002490  17.4274 209.9549  1.00272114 24746
=======
1 27509U 02040B   09121.01303685  .00000052  00000-0  10000-3 0  2464
2 27509   0.5418  25.0573 0008891  41.1927 166.9213  1.00269391 24527
>>>>>>> .r148
INSAT 3A                
<<<<<<< .mine
1 27714U 03013A   09141.37915484  .00000000  00000-0  10000-3 0  6175
2 27714   0.0300 109.4369 0005268 314.4777  45.2461  1.00268135 22420
=======
1 27714U 03013A   09120.85470168 -.00000268  00000-0  10000-3 0  5952
2 27714   0.1160  76.2009 0005009 339.5553 204.3508  1.00269874 22229
>>>>>>> .r148
SARSAT 10 (NOAA 18)     
<<<<<<< .mine
1 28654U 05018A   09144.86350510 -.00000193  00000-0 -82421-4 0  9115
2 28654  98.9060  88.2850 0015386  69.8573 290.4255 14.11258418206663
=======
1 28654U 05018A   09122.38875981  .00000368  00000-0  22788-3 0  8831
2 28654  98.9052  65.9897 0015121 130.1563 230.0917 14.11255323203490
>>>>>>> .r148
MSG-2                   
<<<<<<< .mine
1 28912U 05049B   09143.89340049  .00000009  00000-0  00000+0 0  5088
2 28912   0.5145 266.1755 0001675 149.7262 147.4320  1.00268124 12605
=======
1 28912U 05049B   09122.11828834 -.00000012  00000-0  10000-3 0  5005
2 28912   0.4777 121.2508 0001113 180.2888 321.4516  1.00279762 12389
>>>>>>> .r148
SARSAT 11 (METOP-A)     
<<<<<<< .mine
1 29499U 06044A   09144.88242747 -.00000390  00000-0 -15833-3 0  8162
2 29499  98.6887 205.4038 0001036  93.1428 266.9824 14.21498238134704
=======
1 29499U 06044A   09122.71020626  .00000285  00000-0  15024-3 0  7960
2 29499  98.6893 183.5736 0001013  93.7644 266.3667 14.21499583131556
>>>>>>> .r148
